GSAT0101 (GALILEO-PFM)  
1 37846U 11060A   24236.00730484 -.00000093  00000+0  00000+0 0  9990
2 37846  57.1284 359.7290 0001508  73.2029 286.8181  1.70475665 79819
GSAT0102 (GALILEO-FM2)  
1 37847U 11060B   24236.51507865 -.00000095  00000+0  00000+0 0  9994
2 37847  57.1293 359.7154 0001370 339.8228  17.3884  1.70475145 79953
GSAT0103 (GALILEO-FM3)  
1 38857U 12055A   24237.21994736 -.00000010  00000+0  00000+0 0  9993
2 38857  55.4335 119.7351 0003097 279.0290  81.0158  1.70473600 73868
GSAT0201 (GALILEO 5)    
1 40128U 14050A   24237.53933135 -.00000064  00000+0  00000+0 0  9994
2 40128  49.5884 300.3144 1613021 153.9383 215.1892  1.85519364 66042
GSAT0202 (GALILEO 6)    
1 40129U 14050B   24237.25838553 -.00000061  00000+0  00000+0 0  9999
2 40129  49.6052 299.4034 1612048 154.7240 214.1497  1.85520019 68205
GSAT0203 (GALILEO 7)    
1 40544U 15017A   24236.37300139 -.00000095  00000+0  00000+0 0  9997
2 40544  56.9234 359.6441 0003305 234.7615 125.2126  1.70476074 57905
GSAT0204 (GALILEO 8)    
1 40545U 15017B   24233.69443991 -.00000086  00000+0  00000+0 0  9994
2 40545  56.9299 359.7325 0003486 217.0190 142.9586  1.70475584 20902
GSAT0205 (GALILEO 9)    
1 40889U 15045A   24236.98203160  .00000052  00000+0  00000+0 0  9995
2 40889  55.1910 239.8955 0003062   6.5080 353.5018  1.70473329 55723
GSAT0206 (GALILEO 10)   
1 40890U 15045B   24236.02951698  .00000052  00000+0  00000+0 0  9998
2 40890  55.1908 239.9171 0001844 325.9410  34.0538  1.70473352 55739
GSAT0209 (GALILEO 12)   
1 41174U 15079A   24236.19952078 -.00000001  00000+0  00000+0 0  9997
2 41174  55.4521 119.4731 0003459 338.2480  21.8221  1.70473835 53479
GSAT0208 (GALILEO 11)   
1 41175U 15079B   24236.41931824 -.00000003  00000+0  00000+0 0  9991
2 41175  55.4500 119.4649 0002898 340.9534  19.1197  1.70473675 53891
GSAT0211 (GALILEO 14)   
1 41549U 16030A   24235.36863369  .00000053  00000+0  00000+0 0  9999
2 41549  55.3388 239.9538 0003359 309.3534  50.6257  1.70473407 51333
GSAT0207 (GALILEO 15)   
1 41859U 16069A   24234.14675903  .00000007  00000+0  00000+0 0  9994
2 41859  55.1162 119.5153 0003710 314.8256  45.2308  1.70473754 48062
GSAT0212 (GALILEO 16)   
1 41860U 16069B   24235.17416995  .00000004  00000+0  00000+0 0  9991
2 41860  55.1144 119.4829 0002838   3.4803 356.6087  1.70473909 48337
GSAT0213 (GALILEO 17)   
1 41861U 16069C   24237.30240077 -.00000011  00000+0  00000+0 0  9994
2 41861  55.1174 119.4308 0002561 292.0723  67.9800  1.70474253 48230
GSAT0214 (GALILEO 18)   
1 41862U 16069D   24236.27449416 -.00000003  00000+0  00000+0 0  9999
2 41862  55.1158 119.4527 0001839 303.1923  56.8742  1.70474002 48345
GSAT0215 (GALILEO 19)   
1 43055U 17079A   24236.76372818  .00000053  00000+0  00000+0 0  9996
2 43055  55.3153 239.7363 0003550 263.6781  96.2871  1.70474082 41696
GSAT0216 (GALILEO 20)   
1 43056U 17079B   24237.05537683  .00000053  00000+0  00000+0 0  9993
2 43056  55.3169 239.7281 0004933 273.0158  86.9334  1.70474222 41711
GSAT0217 (GALILEO 21)   
1 43057U 17079C   24233.16981742  .00000064  00000+0  00000+0 0  9993
2 43057  55.3150 239.8338 0004203 283.3863  76.5902  1.70474223 41631
GSAT0218 (GALILEO 22)   
1 43058U 17079D   24236.90934699  .00000053  00000+0  00000+0 0  9996
2 43058  55.3140 239.7283 0005425 269.6104  90.3330  1.70474139 41726
GSAT0221 (GALILEO 25)   
1 43564U 18060A   24237.39706472 -.00000098  00000+0  00000+0 0  9999
2 43564  57.3034 359.6339 0003031 259.9465 100.0249  1.70475984 37888
GSAT0222 (GALILEO 26)   
1 43565U 18060B   24236.44251464 -.00000095  00000+0  00000+0 0  9998
2 43565  57.3062 359.6615 0003473 220.2445 139.7348  1.70475731 37919
GSAT0219 (GALILEO 23)   
1 43566U 18060C   24236.07770488 -.00000093  00000+0  00000+0 0  9998
2 43566  57.3062 359.6732 0002051 264.7042  95.2769  1.70475974 37885
GSAT0220 (GALILEO 24)   
1 43567U 18060D   24237.47154463 -.00000099  00000+0  00000+0 0  9999
2 43567  57.3065 359.6355 0002570 258.6696 101.3071  1.70475609 37883
GSAT0223 (GALILEO 27)   
1 49809U 21116A   24235.56646499 -.00000092  00000+0  00000+0 0  9996
2 49809  57.2968 359.5811 0003232 186.4645 174.7992  1.70475738 16878
GSAT0224 (GALILEO 28)   
1 49810U 21116B   24236.55188414 -.00000095  00000+0  00000+0 0  9999
2 49810  57.2975 359.5528 0002750 181.1378 177.4119  1.70475789 16903
GSAT0225 (GALILEO 29)   
1 59598U 24079A   24237.44842256 -.00000013  00000+0  00000+0 0  9994
2 59598  54.7338 119.5992 0001401 196.4649 343.0691  1.70474057  2035
GSAT0227 (GALILEO 30)   
1 59600U 24079C   24237.33931729 -.00000012  00000+0  00000+0 0  9999
2 59600  54.7286 119.6031 0002416 102.0827 258.0233  1.70474058  2087
